[{"OBJECT_NAME":"SCS-01 H","OBJECT_ID":"2025-100H","EPOCH":"2026-03-09T23:19:05.376864","MEAN_MOTION":15.31767757,"ECCENTRICITY":0.00071581,"INCLINATION":97.3749,"RA_OF_ASC_NODE":145.8085,"ARG_OF_PERICENTER":277.8492,"MEAN_ANOMALY":82.1937,"EPHEMERIS_TYPE":0,"CLASSIFICATION_TYPE":"U","NORAD_CAT_ID":63989,"ELEMENT_SET_NO":999,"REV_AT_EPOCH":4566,"BSTAR":0.0011436254,"MEAN_MOTION_DOT":0.00035149,"MEAN_MOTION_DDOT":0},{"OBJECT_NAME":"STARLINK-34245","OBJECT_ID":"2025-113Z","EPOCH":"2026-03-09T09:05:40.775424","MEAN_MOTION":15.30193547,"ECCENTRICITY":0.00013575,"INCLINATION":53.1601,"RA_OF_ASC_NODE":92.1418,"ARG_OF_PERICENTER":79.4529,"MEAN_ANOMALY":280.6624,"EPHEMERIS_TYPE":0,"CLASSIFICATION_TYPE":"U","NORAD_CAT_ID":64193,"ELEMENT_SET_NO":999,"REV_AT_EPOCH":4498,"BSTAR":0.00096576002,"MEAN_MOTION_DOT":0.00028347,"MEAN_MOTION_DDOT":0}]
